GLOBALSTAR M004         
1 25163U 98008B   24176.10120128 -.00000079  00000+0  13534-3 0  9992
2 25163  52.0008  66.5601 0002353 207.9732 297.2477 12.63362949216429
GLOBALSTAR M002         
1 25164U 98008C   24176.16550758 -.00000068  00000+0  15921-3 0  9995
2 25164  52.0031  57.8781 0000702 186.0363 174.0449 11.61502573142538
GLOBALSTAR M014         
1 25306U 98023A   24176.47860249 -.00000056  00000+0  40951-3 0  9991
2 25306  51.9863 347.8387 0001624  80.5094 307.7521 11.65468870149464
GLOBALSTAR M015         
1 25308U 98023C   24176.30726274 -.00000086  00000+0 -29435-3 0  9992
2 25308  51.9817 109.4360 0012170 159.3096   7.0196 11.48853063152941
GLOBALSTAR M008         
1 25309U 98023D   24176.43375774 -.00000102  00000+0 -48445-4 0  9994
2 25309  51.9944 155.2514 0002361 138.9607  27.3707 12.36044649193606
